{"epoch":1784762836,"count":18316,"objects":[{"id":"62711","name":"LEMUR 2 ROUNDTRIPPER","type":"PAYLOAD","l1":"1 62711U 25009DG  26203.48659871  .00008163  00000-0  59007-3 0  9996","l2":"2 62711  97.7239 286.1257 0004322  49.7670 310.3934 15.04307536 82930"},{"id":"62712","name":"LEMUR 2 MYNAMEISJEFF","type":"PAYLOAD","l1":"1 62712U 25009DH  26203.48512786  .00008566  00000-0  61900-3 0  9992","l2":"2 62712  97.7284 286.5267 0004318  82.8993 277.2724 15.04300993 82935"},{"id":"63246","name":"LEMUR 2 LEIA-PHILIP","type":"PAYLOAD","l1":"1 63246U 25052AN  26203.42048858  .00000780  00000-0  72086-4 0  9999","l2":"2 63246  97.6785  94.7725 0005079 104.7375 255.4410 14.97397993 73942"},{"id":"63248","name":"LEMUR 2 LIA-MARTIN","type":"PAYLOAD","l1":"1 63248U 25052AQ  26203.27831773  .00003286  00000-0  28273-3 0  9992","l2":"2 63248  97.6844  95.1638 0004750  72.6220 287.5521 14.98060500 73935"},{"id":"63259","name":"LEMUR 2 DELOITTE-1","type":"PAYLOAD","l1":"1 63259U 25052BB  26203.19311707  .00003845  00000-0  33200-3 0  9992","l2":"2 63259  97.6886  95.4100 0002521  55.0354 305.1105 14.97823061 73930"},{"id":"63261","name":"LEMUR 2 EMERSONROSE","type":"PAYLOAD","l1":"1 63261U 25052BD  26203.26699631  .00003537  00000-0  29422-3 0  9997","l2":"2 63261  97.6881  96.1125 0002227  44.3122 315.8279 14.99330942 73999"},{"id":"63262","name":"LEMUR 2 MARACHE-FRAN","type":"PAYLOAD","l1":"1 63262U 25052BE  26203.21821514  .00003861  00000-0  31229-3 0  9998","l2":"2 63262  97.6811  96.4371 0006054 224.6548 135.4189 15.00348969 74017"},{"id":"63264","name":"LEMUR 2 THEFALCONER","type":"PAYLOAD","l1":"1 63264U 25052BG  26203.29145350  .00003077  00000-0  26834-3 0  9990","l2":"2 63264  97.6807  95.0892 0000967 205.9281 154.1893 14.97587786 73948"},{"id":"63351","name":"LEMUR 2 UNTITLED-SC","type":"PAYLOAD","l1":"1 63351U 25061A   26202.86273625  .00003391  00000-0  19137-3 0  9993","l2":"2 63351  97.5661 177.9807 0019840 141.0529 219.2136 15.13676744 72835"},{"id":"63352","name":"LEMUR 2 ESPERANZA","type":"PAYLOAD","l1":"1 63352U 25061B   26203.36641425  .00002664  00000-0  15068-3 0  9998","l2":"2 63352  97.5670 178.5831 0019480 138.7473 221.5234 15.13785213 72917"},{"id":"63353","name":"LEMUR 2 KREMPEL-BRO2","type":"PAYLOAD","l1":"1 63353U 25061C   26203.38336469  .00003123  00000-0  17382-3 0  9992","l2":"2 63353  97.5713 179.1779 0020619 131.7084 228.5916 15.14213390 72930"},{"id":"63354","name":"LEMUR 2 THERMORAPTOR","type":"PAYLOAD","l1":"1 63354U 25061D   26203.36352911  .00003407  00000-0  18890-3 0  9991","l2":"2 63354  97.5720 179.2406 0020342 130.7428 229.5574 15.14295843 72935"},{"id":"63355","name":"LEMUR 2 NEUROSPICY","type":"PAYLOAD","l1":"1 63355U 25061E   26202.86996384  .00003691  00000-0  20385-3 0  9991","l2":"2 63355  97.5646 178.3489 0018109 135.2417 225.0280 15.14412378 72861"},{"id":"63356","name":"LEMUR 2 TILLINFINITY","type":"PAYLOAD","l1":"1 63356U 25061F   26202.89185912  .00003800  00000-0  20623-3 0  9999","l2":"2 63356  97.5632 178.6855 0019548 124.2631 236.0456 15.14997848 72891"},{"id":"63357","name":"LEMUR 2 KREMPEL-BRO1","type":"PAYLOAD","l1":"1 63357U 25061G   26202.80370882  .00003691  00000-0  20147-3 0  9992","l2":"2 63357  97.5632 178.5041 0020215 125.9156 234.3956 15.14803299 72871"},{"id":"63358","name":"LEMUR 2 LANGER2SPACE","type":"PAYLOAD","l1":"1 63358U 25061H   26203.16752167  .00003185  00000-0  17604-3 0  9995","l2":"2 63358  97.5638 178.6659 0018041 132.6129 227.6628 15.14497880 72914"},{"id":"63395","name":"LEMUR 2 BALTO","type":"PAYLOAD","l1":"1 63395U 25052BH  26203.26901357  .00004098  00000-0  33072-3 0  9995","l2":"2 63395  97.6917  96.4854 0004994 296.7089  63.3623 15.00405351 74020"},{"id":"64561","name":"LEMUR 2 KRISH","type":"PAYLOAD","l1":"1 64561U 25135AK  26203.58247404  .00004415  00000-0  39383-3 0  9998","l2":"2 64561  97.7759 318.2257 0001225 110.9382 249.1970 14.96488813 59211"},{"id":"64565","name":"LEMUR 2 HUBBLE-4","type":"PAYLOAD","l1":"1 64565U 25135AP  26203.30908015  .00000997  00000-0  99595-4 0  9997","l2":"2 64565  97.7722 316.8110 0003187 145.8167 214.3259 14.93698313 59112"},{"id":"64586","name":"LEMUR 2 SEJONG-2","type":"PAYLOAD","l1":"1 64586U 25135BL  26203.60121564  .00005409  00000-0  47542-3 0  9996","l2":"2 64586  97.7711 318.3900 0004406 184.8452 175.2728 14.96958351 59246"},{"id":"64840","name":"LEMUR 2 HUBBLE-5","type":"PAYLOAD","l1":"1 64840U 25135BT  26203.58327299  .00001177  00000-0  11510-3 0  9993","l2":"2 64840  97.7742 317.7591 0004922 206.1400 153.9572 14.94226133 59194"},{"id":"64841","name":"LEMUR 2 KARENDARRELL","type":"PAYLOAD","l1":"1 64841U 25135BU  26203.59844586  .00007622  00000-0  60726-3 0  9992","l2":"2 64841  97.7721 319.7656 0012991  82.3538 277.9161 15.00573995 59322"},{"id":"65403","name":"LEMUR-2-LUCILLE-ROSE","type":"PAYLOAD","l1":"1 65403U 25135BV  26202.77177812  .00006864  00000-0  54743-3 0  9996","l2":"2 65403  97.7692 318.9731 0015513 169.4240 190.7313 15.00544258 53829"},{"id":"66295","name":"LEMUR 2 AFFIE-WAUWIE","type":"PAYLOAD","l1":"1 66295U 25248C   26203.49387662  .00022200  00000-0  79388-3 0  9991","l2":"2 66295  45.3912 283.5023 0009262 289.5077  70.4811 15.28473556 39991"},{"id":"66678","name":"OTTER SDM","type":"PAYLOAD","l1":"1 66678U 25276N   26203.14094925  .00006216  00000-0  29072-3 0  9990","l2":"2 66678  97.4195 276.0428 0004839 222.8248 137.2611 15.20111322 35727"},{"id":"66686","name":"LEMUR-2-STAS-GORBUK","type":"PAYLOAD","l1":"1 66686U 25276W   26203.16421229  .00004820  00000-0  22883-3 0  9994","l2":"2 66686  97.4227 276.1161 0004147 216.7749 143.3202 15.19706170 35720"},{"id":"66768","name":"LEMUR-2-TEODOR","type":"PAYLOAD","l1":"1 66768U 25276DG  26203.43838479  .00005433  00000-0  24529-3 0  9994","l2":"2 66768  97.4133 276.6672 0002083  83.4185 276.7288 15.21390266 35801"},{"id":"66776","name":"LEMUR-2-LAILA","type":"PAYLOAD","l1":"1 66776U 25276DQ  26203.20982481  .00005780  00000-0  25905-3 0  9995","l2":"2 66776  97.4156 276.5851 0002792  84.3231 275.8324 15.21615295 35771"},{"id":"66781","name":"LEMUR-2-CELIJO-SB-PK","type":"PAYLOAD","l1":"1 66781U 25276DW  26203.18783176  .00006039  00000-0  48559-3 0  9996","l2":"2 66781  97.5180 272.8090 0006594  47.4458 312.7322 15.00337188 27874"}]}